{"type": "FeatureCollection", "features": [ {"type": "Feature", "properties": {"norad_id": 32126, "name": "FENGYUN 1C DEB", "group": "fengyun-1c-debris", "lat": 45.24978414699561, "lon": 58.34289878377191, "alt_km": 1089.5737662442425, "timestamp": "2025-12-19T10:50:01.486306+00:00", "meta": {"OBJECT_NAME": "FENGYUN 1C DEB", "OBJECT_ID": "1999-025CRU", "EPOCH": "2025-12-14T22:11:18.681792", "MEAN_MOTION": 13.56802944, "ECCENTRICITY": 0.02807648, "INCLINATION": 99.1097, "RA_OF_ASC_NODE": 224.8335, "ARG_OF_PERICENTER": 249.9124, "MEAN_ANOMALY": 107.16, "EPHEMERIS_TYPE": 0, "CLASSIFICATION_TYPE": "U", "NORAD_CAT_ID": 32126, "ELEMENT_SET_NO": 999, "REV_AT_EPOCH": 61744, "BSTAR": 0.001056147, "MEAN_MOTION_DOT": 9.24e-06, "MEAN_MOTION_DDOT": 0}, "tle": {"line1": "1 32126U 99025CRU 25348.92452178  .00000924  00000+0  10561-2 0  9998", "line2": "2 32126  99.1097 224.8335 0280764 249.9124 107.1600 13.56802944617445"}}, "geometry": {"type": "Point", "coordinates": [58.34289878377191, 45.24978414699561]}}, {"type": "Feature", "properties": {"norad_id": 32128, "name": "FENGYUN 1C DEB", "group": "fengyun-1c-debris", "lat": -79.63669096284926, "lon": 159.13124476246497, "alt_km": 769.5440328093664, "timestamp": "2025-12-19T10:50:01.486316+00:00", "meta": {"OBJECT_NAME": "FENGYUN 1C DEB", "OBJECT_ID": "1999-025CRW", "EPOCH": "2025-12-18T09:27:46.848672", "MEAN_MOTION": 13.94234467, "ECCENTRICITY": 0.03974081, "INCLINATION": 99.0304, "RA_OF_ASC_NODE": 38.508, "ARG_OF_PERICENTER": 207.364, "MEAN_ANOMALY": 150.6083, "EPHEMERIS_TYPE": 0, "CLASSIFICATION_TYPE": "U", "NORAD_CAT_ID": 32128, "ELEMENT_SET_NO": 999, "REV_AT_EPOCH": 63064, "BSTAR": 0.00040367729, "MEAN_MOTION_DOT": 9.85e-06, "MEAN_MOTION_DDOT": 0}, "tle": {"line1": "1 32128U 99025CRW 25352.39429223  .00000985  00000+0  40368-3 0  9997", "line2": "2 32128  99.0304  38.5080 0397408 207.3640 150.6083 13.94234467630645"}}, "geometry": {"type": "Point", "coordinates": [159.13124476246497, -79.63669096284926]}}, {"type": "Feature", "properties": {"norad_id": 32129, "name": "FENGYUN 1C DEB", "group": "fengyun-1c-debris", "lat": -77.09153633002803, "lon": -112.01444440363521, "alt_km": 822.8058476874321, "timestamp": "2025-12-19T10:50:01.486326+00:00", "meta": {"OBJECT_NAME": "FENGYUN 1C DEB", "OBJECT_ID": "1999-025CRX", "EPOCH": "2025-12-15T06:35:06.946944", "MEAN_MOTION": 14.28524934, "ECCENTRICITY": 0.00675694, "INCLINATION": 99.0595, "RA_OF_ASC_NODE": 107.7711, "ARG_OF_PERICENTER": 26.1912, "MEAN_ANOMALY": 5.9768, "EPHEMERIS_TYPE": 0, "CLASSIFICATION_TYPE": "U", "NORAD_CAT_ID": 32129, "ELEMENT_SET_NO": 999, "REV_AT_EPOCH": 94263, "BSTAR": 0.0015513104, "MEAN_MOTION_DOT": 3.939e-05, "MEAN_MOTION_DDOT": 0}, "tle": {"line1": "1 32129U 99025CRX 25349.27438596  .00003939  00000+0  15513-2 0  9999", "line2": "2 32129  99.0595 107.7711 0067569  26.1912   5.9768 14.28524934942635"}}, "geometry": {"type": "Point", "coordinates": [-112.01444440363521, -77.09153633002803]}}, {"type": "Feature", "properties": {"norad_id": 32130, "name": "FENGYUN 1C DEB", "group": "fengyun-1c-debris", "lat": -14.130227005552374, "lon": 162.4613550019151, "alt_km": 723.0412549543908, "timestamp": "2025-12-19T10:50:01.486336+00:00", "meta": {"OBJECT_NAME": "FENGYUN 1C DEB", "OBJECT_ID": "1999-025CRY", "EPOCH": "2025-12-16T17:45:08.612064", "MEAN_MOTION": 14.37558126, "ECCENTRICITY": 0.00823888, "INCLINATION": 98.9033, "RA_OF_ASC_NODE": 157.3928, "ARG_OF_PERICENTER": 318.2989, "MEAN_ANOMALY": 41.1935, "EPHEMERIS_TYPE": 0, "CLASSIFICATION_TYPE": "U", "NORAD_CAT_ID": 32130, "ELEMENT_SET_NO": 999, "REV_AT_EPOCH": 96292, "BSTAR": 0.00039412838, "MEAN_MOTION_DOT": 1.18e-05, "MEAN_MOTION_DDOT": 0}, "tle": {"line1": "1 32130U 99025CRY 25350.73968301  .00001180  00000+0  39413-3 0  9998", "line2": "2 32130  98.9033 157.3928 0082388 318.2989  41.1935 14.37558126962920"}}, "geometry": {"type": "Point", "coordinates": [162.4613550019151, -14.130227005552374]}}, {"type": "Feature", "properties": {"norad_id": 32133, "name": "FENGYUN 1C DEB", "group": "fengyun-1c-debris", "lat": -68.09707293370025, "lon": 152.67318765510956, "alt_km": 864.8045327300242, "timestamp": "2025-12-19T10:50:01.486346+00:00", "meta": {"OBJECT_NAME": "FENGYUN 1C DEB", "OBJECT_ID": "1999-025CSB", "EPOCH": "2025-12-14T11:07:28.655904", "MEAN_MOTION": 14.18073011, "ECCENTRICITY": 0.0036436, "INCLINATION": 98.4317, "RA_OF_ASC_NODE": 349.5844, "ARG_OF_PERICENTER": 96.0105, "MEAN_ANOMALY": 264.5225, "EPHEMERIS_TYPE": 0, "CLASSIFICATION_TYPE": "U", "NORAD_CAT_ID": 32133, "ELEMENT_SET_NO": 999, "REV_AT_EPOCH": 94999, "BSTAR": 0.00024822203, "MEAN_MOTION_DOT": 4.72e-06, "MEAN_MOTION_DDOT": 0}, "tle": {"line1": "1 32133U 99025CSB 25348.46352611  .00000472  00000+0  24822-3 0  9990", "line2": "2 32133  98.4317 349.5844 0036436  96.0105 264.5225 14.18073011949998"}}, "geometry": {"type": "Point", "coordinates": [152.67318765510956, -68.09707293370025]}}, {"type": "Feature", "properties": {"norad_id": 32134, "name": "FENGYUN 1C DEB", "group": "fengyun-1c-debris", "lat": -2.6478227657291282, "lon": 176.07715922812912, "alt_km": 730.6797931486681, "timestamp": "2025-12-19T10:50:01.486356+00:00", "meta": {"OBJECT_NAME": "FENGYUN 1C DEB", "OBJECT_ID": "1999-025CSC", "EPOCH": "2025-12-17T11:24:43.243200", "MEAN_MOTION": 14.21573578, "ECCENTRICITY": 0.02590122, "INCLINATION": 98.594, "RA_OF_ASC_NODE": 354.5516, "ARG_OF_PERICENTER": 249.81, "MEAN_ANOMALY": 269.0237, "EPHEMERIS_TYPE": 0, "CLASSIFICATION_TYPE": "U", "NORAD_CAT_ID": 32134, "ELEMENT_SET_NO": 999, "REV_AT_EPOCH": 95214, "BSTAR": 0.00046613441, "MEAN_MOTION_DOT": 1.386e-05, "MEAN_MOTION_DDOT": 0}, "tle": {"line1": "1 32134U 99025CSC 25351.47550050  .00001386  00000+0  46613-3 0  9990", "line2": "2 32134  98.5940 354.5516 0259012 249.8100 269.0237 14.21573578952145"}}, "geometry": {"type": "Point", "coordinates": [176.07715922812912, -2.6478227657291282]}}, {"type": "Feature", "properties": {"norad_id": 32137, "name": "FENGYUN 1C DEB", "group": "fengyun-1c-debris", "lat": -38.246345358034446, "lon": 127.7760353544085, "alt_km": 548.1258490434311, "timestamp": "2025-12-19T10:50:01.486367+00:00", "meta": {"OBJECT_NAME": "FENGYUN 1C DEB", "OBJECT_ID": "1999-025CSF", "EPOCH": "2025-12-17T15:13:57.776736", "MEAN_MOTION": 14.81308237, "ECCENTRICITY": 0.0187224, "INCLINATION": 98.441, "RA_OF_ASC_NODE": 119.1403, "ARG_OF_PERICENTER": 18.4875, "MEAN_ANOMALY": 342.302, "EPHEMERIS_TYPE": 0, "CLASSIFICATION_TYPE": "U", "NORAD_CAT_ID": 32137, "ELEMENT_SET_NO": 999, "REV_AT_EPOCH": 66803, "BSTAR": 0.00053850151, "MEAN_MOTION_DOT": 5.625e-05, "MEAN_MOTION_DDOT": 0}, "tle": {"line1": "1 32137U 99025CSF 25351.63469649  .00005625  00000+0  53850-3 0  9995", "line2": "2 32137  98.4410 119.1403 0187224  18.4875 342.3020 14.81308237668034"}}, "geometry": {"type": "Point", "coordinates": [127.7760353544085, -38.246345358034446]}}, {"type": "Feature", "properties": {"norad_id": 32141, "name": "FENGYUN 1C DEB", "group": "fengyun-1c-debris", "lat": -49.52845835406406, "lon": 165.1993605001548, "alt_km": 847.9624293121606, "timestamp": "2025-12-19T10:50:01.486377+00:00", "meta": {"OBJECT_NAME": "FENGYUN 1C DEB", "OBJECT_ID": "1999-025CSK", "EPOCH": "2025-11-20T23:04:46.058016", "MEAN_MOTION": 14.03501767, "ECCENTRICITY": 0.00731678, "INCLINATION": 98.7436, "RA_OF_ASC_NODE": 328.1999, "ARG_OF_PERICENTER": 269.2169, "MEAN_ANOMALY": 90.0615, "EPHEMERIS_TYPE": 0, "CLASSIFICATION_TYPE": "U", "NORAD_CAT_ID": 32141, "ELEMENT_SET_NO": 999, "REV_AT_EPOCH": 94638, "BSTAR": 0.00056632309, "MEAN_MOTION_DOT": 8.66e-06, "MEAN_MOTION_DDOT": 0}, "tle": {"line1": "1 32141U 99025CSK 25324.96164419  .00000866  00000+0  56632-3 0  9996", "line2": "2 32141  98.7436 328.1999 0073167 269.2169  90.0615 14.03501767946385"}}, "geometry": {"type": "Point", "coordinates": [165.1993605001548, -49.52845835406406]}}, {"type": "Feature", "properties": {"norad_id": 32143, "name": "FENGYUN 1C DEB", "group": "fengyun-1c-debris", "lat": -2.822931636121853, "lon": 149.74526072146242, "alt_km": 839.0462495542042, "timestamp": "2025-12-19T10:50:01.486387+00:00", "meta": {"OBJECT_NAME": "FENGYUN 1C DEB", "OBJECT_ID": "1999-025CSM", "EPOCH": "2025-12-17T03:47:36.858336", "MEAN_MOTION": 14.17974045, "ECCENTRICITY": 0.01045676, "INCLINATION": 98.5967, "RA_OF_ASC_NODE": 327.9519, "ARG_OF_PERICENTER": 96.0348, "MEAN_ANOMALY": 265.2755, "EPHEMERIS_TYPE": 0, "CLASSIFICATION_TYPE": "U", "NORAD_CAT_ID": 32143, "ELEMENT_SET_NO": 999, "REV_AT_EPOCH": 95996, "BSTAR": 0.000152935, "MEAN_MOTION_DOT": 2.89e-06, "MEAN_MOTION_DDOT": 0}, "tle": {"line1": "1 32143U 99025CSM 25351.15806549  .00000289  00000+0  15294-3 0  9994", "line2": "2 32143  98.5967 327.9519 0104567  96.0348 265.2755 14.17974045959960"}}, "geometry": {"type": "Point", "coordinates": [149.74526072146242, -2.822931636121853]}}, {"type": "Feature", "properties": {"norad_id": 32150, "name": "FENGYUN 1C DEB", "group": "fengyun-1c-debris", "lat": -36.689134243492006, "lon": 23.96328421833403, "alt_km": 683.5980291432543, "timestamp": "2025-12-19T10:50:01.486397+00:00", "meta": {"OBJECT_NAME": "FENGYUN 1C DEB", "OBJECT_ID": "1999-025CSU", "EPOCH": "2025-12-17T19:32:44.216160", "MEAN_MOTION": 14.60679601, "ECCENTRICITY": 0.01717549, "INCLINATION": 99.1924, "RA_OF_ASC_NODE": 15.2172, "ARG_OF_PERICENTER": 52.3233, "MEAN_ANOMALY": 309.3402, "EPHEMERIS_TYPE": 0, "CLASSIFICATION_TYPE": "U", "NORAD_CAT_ID": 32150, "ELEMENT_SET_NO": 999, "REV_AT_EPOCH": 97780, "BSTAR": 0.00013273529, "MEAN_MOTION_DOT": 7.28e-06, "MEAN_MOTION_DDOT": 0}, "tle": {"line1": "1 32150U 99025CSU 25351.81440065  .00000728  00000+0  13274-3 0  9996", "line2": "2 32150  99.1924  15.2172 0171754  52.3233 309.3402 14.60679601977800"}}, "geometry": {"type": "Point", "coordinates": [23.96328421833403, -36.689134243492006]}}]}